{"type": "FeatureCollection", "features": [ {"type": "Feature", "properties": {"norad_id": 67073, "name": "RAISE-4", "group": "last-30-days", "lat": -37.528440316463694, "lon": -37.36058797714304, "alt_km": 545.6835499782364, "timestamp": "2025-12-27T06:41:29.622542+00:00", "meta": {"OBJECT_NAME": "RAISE-4", "OBJECT_ID": "2025-297B", "EPOCH": "2025-12-26T21:45:38.069568", "MEAN_MOTION": 15.07251265, "ECCENTRICITY": 0.00116854, "INCLINATION": 97.4853, "RA_OF_ASC_NODE": 148.0738, "ARG_OF_PERICENTER": 267.6783, "MEAN_ANOMALY": 92.3107, "EPHEMERIS_TYPE": 0, "CLASSIFICATION_TYPE": "U", "NORAD_CAT_ID": 67073, "ELEMENT_SET_NO": 999, "REV_AT_EPOCH": 192, "BSTAR": 0.00044339694, "MEAN_MOTION_DOT": 6.635e-05, "MEAN_MOTION_DDOT": 0}, "tle": {"line1": "1 67073U 25297B   25360.90669062  .00006635  00000+0  44340-3 0  9999", "line2": "2 67073  97.4853 148.0738 0011685 267.6783  92.3107 15.07251265  1920"}}, "geometry": {"type": "Point", "coordinates": [-37.36058797714304, -37.528440316463694]}}, {"type": "Feature", "properties": {"norad_id": 67074, "name": "ELECTRON KICK STAGE R/B", "group": "last-30-days", "lat": 48.13553912711159, "lon": 141.02548110715387, "alt_km": 501.68930741709664, "timestamp": "2025-12-27T06:41:29.622554+00:00", "meta": {"OBJECT_NAME": "ELECTRON KICK STAGE R/B", "OBJECT_ID": "2025-297C", "EPOCH": "2025-12-26T22:47:05.892000", "MEAN_MOTION": 15.61124202, "ECCENTRICITY": 0.01857056, "INCLINATION": 97.4807, "RA_OF_ASC_NODE": 149.1096, "ARG_OF_PERICENTER": 217.9419, "MEAN_ANOMALY": 140.8636, "EPHEMERIS_TYPE": 0, "CLASSIFICATION_TYPE": "U", "NORAD_CAT_ID": 67074, "ELEMENT_SET_NO": 999, "REV_AT_EPOCH": 199, "BSTAR": 0.0019422313, "MEAN_MOTION_DOT": 0.00394437, "MEAN_MOTION_DDOT": 4.5011519e-05}, "tle": {"line1": "1 67074U 25297C   25360.94937375  .00394437  45012-4  19422-2 0  9998", "line2": "2 67074  97.4807 149.1096 0185705 217.9419 140.8636 15.61124202  1991"}}, "geometry": {"type": "Point", "coordinates": [141.02548110715387, 48.13553912711159]}}, {"type": "Feature", "properties": {"norad_id": 67075, "name": "STARLINK-36230", "group": "last-30-days", "lat": -63.744431569397705, "lon": 161.045123008172, "alt_km": 354.32677638819405, "timestamp": "2025-12-27T06:41:29.622564+00:00", "meta": {"OBJECT_NAME": "STARLINK-36230", "OBJECT_ID": "2025-298A", "EPOCH": "2025-12-26T22:00:01.999584", "MEAN_MOTION": 15.74477498, "ECCENTRICITY": 0.00037265, "INCLINATION": 69.9985, "RA_OF_ASC_NODE": 209.6704, "ARG_OF_PERICENTER": 277.7268, "MEAN_ANOMALY": 118.6082, "EPHEMERIS_TYPE": 0, "CLASSIFICATION_TYPE": "U", "NORAD_CAT_ID": 67075, "ELEMENT_SET_NO": 999, "REV_AT_EPOCH": 325, "BSTAR": -0.013256007, "MEAN_MOTION_DOT": -0.0170876, "MEAN_MOTION_DDOT": 0}, "tle": {"line1": "1 67075U 25298A   25360.91668981 -.01708760  00000+0 -13256-1 0  9993", "line2": "2 67075  69.9985 209.6704 0003726 277.7268 118.6082 15.74477498  3250"}}, "geometry": {"type": "Point", "coordinates": [161.045123008172, -63.744431569397705]}}, {"type": "Feature", "properties": {"norad_id": 67076, "name": "STARLINK-36240", "group": "last-30-days", "lat": -62.485523668098246, "lon": 164.27278082252477, "alt_km": 354.39594927558574, "timestamp": "2025-12-27T06:41:29.622574+00:00", "meta": {"OBJECT_NAME": "STARLINK-36240", "OBJECT_ID": "2025-298B", "EPOCH": "2025-12-26T22:00:01.999584", "MEAN_MOTION": 15.74477163, "ECCENTRICITY": 0.00036293, "INCLINATION": 69.9987, "RA_OF_ASC_NODE": 209.6678, "ARG_OF_PERICENTER": 277.6398, "MEAN_ANOMALY": 120.6275, "EPHEMERIS_TYPE": 0, "CLASSIFICATION_TYPE": "U", "NORAD_CAT_ID": 67076, "ELEMENT_SET_NO": 999, "REV_AT_EPOCH": 325, "BSTAR": -0.013269657, "MEAN_MOTION_DOT": -0.017102, "MEAN_MOTION_DDOT": 0}, "tle": {"line1": "1 67076U 25298B   25360.91668981 -.01710200  00000+0 -13270-1 0  9992", "line2": "2 67076  69.9987 209.6678 0003629 277.6398 120.6275 15.74477163  3254"}}, "geometry": {"type": "Point", "coordinates": [164.27278082252477, -62.485523668098246]}}, {"type": "Feature", "properties": {"norad_id": 67077, "name": "STARLINK-36243", "group": "last-30-days", "lat": -61.006785346061584, "lon": 167.5451042723415, "alt_km": 354.36355543377886, "timestamp": "2025-12-27T06:41:29.622584+00:00", "meta": {"OBJECT_NAME": "STARLINK-36243", "OBJECT_ID": "2025-298C", "EPOCH": "2025-12-26T22:00:01.999584", "MEAN_MOTION": 15.74466005, "ECCENTRICITY": 0.00037176, "INCLINATION": 69.9986, "RA_OF_ASC_NODE": 209.6653, "ARG_OF_PERICENTER": 277.5645, "MEAN_ANOMALY": 122.8613, "EPHEMERIS_TYPE": 0, "CLASSIFICATION_TYPE": "U", "NORAD_CAT_ID": 67077, "ELEMENT_SET_NO": 999, "REV_AT_EPOCH": 325, "BSTAR": -0.013265073, "MEAN_MOTION_DOT": -0.01709027, "MEAN_MOTION_DDOT": 0}, "tle": {"line1": "1 67077U 25298C   25360.91668981 -.01709027  00000+0 -13265-1 0  9992", "line2": "2 67077  69.9986 209.6653 0003717 277.5645 122.8613 15.74466005  3252"}}, "geometry": {"type": "Point", "coordinates": [167.5451042723415, -61.006785346061584]}}, {"type": "Feature", "properties": {"norad_id": 67078, "name": "STARLINK-36236", "group": "last-30-days", "lat": -59.68318565664896, "lon": 170.10880901015506, "alt_km": 354.28460947104486, "timestamp": "2025-12-27T06:41:29.622595+00:00", "meta": {"OBJECT_NAME": "STARLINK-36236", "OBJECT_ID": "2025-298D", "EPOCH": "2025-12-26T22:00:01.999584", "MEAN_MOTION": 15.74469871, "ECCENTRICITY": 0.00038181, "INCLINATION": 69.9988, "RA_OF_ASC_NODE": 209.6631, "ARG_OF_PERICENTER": 277.32, "MEAN_ANOMALY": 124.9361, "EPHEMERIS_TYPE": 0, "CLASSIFICATION_TYPE": "U", "NORAD_CAT_ID": 67078, "ELEMENT_SET_NO": 999, "REV_AT_EPOCH": 325, "BSTAR": -0.013255172, "MEAN_MOTION_DOT": -0.0170825, "MEAN_MOTION_DDOT": 0}, "tle": {"line1": "1 67078U 25298D   25360.91668981 -.01708250  00000+0 -13255-1 0  9999", "line2": "2 67078  69.9988 209.6631 0003818 277.3200 124.9361 15.74469871  3255"}}, "geometry": {"type": "Point", "coordinates": [170.10880901015506, -59.68318565664896]}}, {"type": "Feature", "properties": {"norad_id": 67079, "name": "STARLINK-36159", "group": "last-30-days", "lat": -58.090834465823825, "lon": 172.83526908096724, "alt_km": 354.6125633521724, "timestamp": "2025-12-27T06:41:29.622606+00:00", "meta": {"OBJECT_NAME": "STARLINK-36159", "OBJECT_ID": "2025-298E", "EPOCH": "2025-12-26T22:00:01.999584", "MEAN_MOTION": 15.74536377, "ECCENTRICITY": 0.00037651, "INCLINATION": 69.9991, "RA_OF_ASC_NODE": 209.6609, "ARG_OF_PERICENTER": 278.9551, "MEAN_ANOMALY": 125.4572, "EPHEMERIS_TYPE": 0, "CLASSIFICATION_TYPE": "U", "NORAD_CAT_ID": 67079, "ELEMENT_SET_NO": 999, "REV_AT_EPOCH": 325, "BSTAR": -0.01491079, "MEAN_MOTION_DOT": -0.01898583, "MEAN_MOTION_DDOT": 0}, "tle": {"line1": "1 67079U 25298E   25360.91668981 -.01898583  00000+0 -14911-1 0  9999", "line2": "2 67079  69.9991 209.6609 0003765 278.9551 125.4572 15.74536377  3258"}}, "geometry": {"type": "Point", "coordinates": [172.83526908096724, -58.090834465823825]}}, {"type": "Feature", "properties": {"norad_id": 67080, "name": "STARLINK-36158", "group": "last-30-days", "lat": -56.46619149529732, "lon": 175.292039636188, "alt_km": 354.3447211647481, "timestamp": "2025-12-27T06:41:29.622616+00:00", "meta": {"OBJECT_NAME": "STARLINK-36158", "OBJECT_ID": "2025-298F", "EPOCH": "2025-12-26T22:00:01.999584", "MEAN_MOTION": 15.74447513, "ECCENTRICITY": 0.00038247, "INCLINATION": 69.9985, "RA_OF_ASC_NODE": 209.6578, "ARG_OF_PERICENTER": 276.842, "MEAN_ANOMALY": 129.673, "EPHEMERIS_TYPE": 0, "CLASSIFICATION_TYPE": "U", "NORAD_CAT_ID": 67080, "ELEMENT_SET_NO": 999, "REV_AT_EPOCH": 319, "BSTAR": -0.013251063, "MEAN_MOTION_DOT": -0.01706318, "MEAN_MOTION_DDOT": 0}, "tle": {"line1": "1 67080U 25298F   25360.91668981 -.01706318  00000+0 -13251-1 0  9991", "line2": "2 67080  69.9985 209.6578 0003824 276.8420 129.6730 15.74447513  3194"}}, "geometry": {"type": "Point", "coordinates": [175.292039636188, -56.46619149529732]}}, {"type": "Feature", "properties": {"norad_id": 67081, "name": "STARLINK-35864", "group": "last-30-days", "lat": -54.92092191757091, "lon": 177.38757704485693, "alt_km": 354.4370297802934, "timestamp": "2025-12-27T06:41:29.622625+00:00", "meta": {"OBJECT_NAME": "STARLINK-35864", "OBJECT_ID": "2025-298G", "EPOCH": "2025-12-26T22:00:01.999584", "MEAN_MOTION": 15.7445026, "ECCENTRICITY": 0.0003669, "INCLINATION": 69.9987, "RA_OF_ASC_NODE": 209.6557, "ARG_OF_PERICENTER": 277.5129, "MEAN_ANOMALY": 130.9508, "EPHEMERIS_TYPE": 0, "CLASSIFICATION_TYPE": "U", "NORAD_CAT_ID": 67081, "ELEMENT_SET_NO": 999, "REV_AT_EPOCH": 325, "BSTAR": -0.013296565, "MEAN_MOTION_DOT": -0.01711527, "MEAN_MOTION_DDOT": 0}, "tle": {"line1": "1 67081U 25298G   25360.91668981 -.01711527  00000+0 -13297-1 0  9990", "line2": "2 67081  69.9987 209.6557 0003669 277.5129 130.9508 15.74450260  3253"}}, "geometry": {"type": "Point", "coordinates": [177.38757704485693, -54.92092191757091]}}, {"type": "Feature", "properties": {"norad_id": 67082, "name": "STARLINK-36035", "group": "last-30-days", "lat": -53.281485183284275, "lon": 179.397003385507, "alt_km": 354.4060104662267, "timestamp": "2025-12-27T06:41:29.622635+00:00", "meta": {"OBJECT_NAME": "STARLINK-36035", "OBJECT_ID": "2025-298H", "EPOCH": "2025-12-26T22:00:01.999584", "MEAN_MOTION": 15.74442541, "ECCENTRICITY": 0.00036918, "INCLINATION": 69.9988, "RA_OF_ASC_NODE": 209.6534, "ARG_OF_PERICENTER": 278.9782, "MEAN_ANOMALY": 131.5166, "EPHEMERIS_TYPE": 0, "CLASSIFICATION_TYPE": "U", "NORAD_CAT_ID": 67082, "ELEMENT_SET_NO": 999, "REV_AT_EPOCH": 325, "BSTAR": -0.013272117, "MEAN_MOTION_DOT": -0.01708259, "MEAN_MOTION_DDOT": 0}, "tle": {"line1": "1 67082U 25298H   25360.91668981 -.01708259  00000+0 -13272-1 0  9992", "line2": "2 67082  69.9988 209.6534 0003691 278.9782 131.5166 15.74442541  3255"}}, "geometry": {"type": "Point", "coordinates": [179.397003385507, -53.281485183284275]}}]}